{
    "links": {
        "self": "http://www.neowsapp.com/rest/v1/neo/3856702?api_key=iIulBulltgU6a56xZRHN4H3l9WmuAYTsLGpBGhQ2"
    },
    "id": "3856702",
    "neo_reference_id": "3856702",
    "name": "(2019 SV3)",
    "designation": "2019 SV3",
    "nasa_jpl_url": "http://ssd.jpl.nasa.gov/sbdb.cgi?sstr=3856702",
    "absolute_magnitude_h": 23.1,
    "estimated_diameter": {
        "kilometers": {
            "estimated_diameter_min": 0.063760979,
            "estimated_diameter_max": 0.1425738833
        },
        "meters": {
            "estimated_diameter_min": 63.7609789875,
            "estimated_diameter_max": 142.5738833281
        },
        "miles": {
            "estimated_diameter_min": 0.0396192233,
            "estimated_diameter_max": 0.0885912765
        },
        "feet": {
            "estimated_diameter_min": 209.1895703015,
            "estimated_diameter_max": 467.7620993781
        }
    },
    "is_potentially_hazardous_asteroid": false,
    "close_approach_data": [
        {
            "close_approach_date": "2019-09-29",
            "close_approach_date_full": "2019-Sep-29 22:55",
            "epoch_date_close_approach": 1569797700000,
            "relative_velocity": {
                "kilometers_per_second": "6.6144894616",
                "kilometers_per_hour": "23812.1620617789",
                "miles_per_hour": "14795.9514766648"
            },
            "miss_distance": {
                "astronomical": "0.2650827284",
                "lunar": "103.1171813476",
                "kilometers": "39655811.542428508",
                "miles": "24640978.6751010904"
            },
            "orbiting_body": "Earth"
        }
    ],
    "orbital_data": {
        "orbit_id": "1",
        "orbit_determination_date": "2019-09-26 07:36:34",
        "first_observation_date": "2019-09-22",
        "last_observation_date": "2019-09-26",
        "data_arc_in_days": 4,
        "observations_used": 8,
        "orbit_uncertainty": "9",
        "minimum_orbit_intersection": ".236881",
        "jupiter_tisserand_invariant": "3.973",
        "epoch_osculation": "2458749.5",
        "eccentricity": ".3184855840395049",
        "semi_major_axis": "1.805187395641955",
        "inclination": "12.52316755373644",
        "ascending_node_longitude": "4.449364026572068",
        "orbital_period": "885.8942147967546",
        "perihelion_distance": "1.230261233640174",
        "perihelion_argument": "17.74640409766471",
        "aphelion_distance": "2.380113557643735",
        "perihelion_time": "2458781.760239088585",
        "mean_anomaly": "346.8904369416668",
        "mean_motion": ".406369060760367",
        "equinox": "J2000",
        "orbit_class": {
            "orbit_class_type": "AMO",
            "orbit_class_description": "Near-Earth asteroid orbits similar to that of 1221 Amor",
            "orbit_class_range": "1.017 AU < q (perihelion) < 1.3 AU"
        }
    },
    "is_sentry_object": false
}